{"type": "FeatureCollection", "features": [ {"type": "Feature", "properties": {"norad_id": 35445, "name": "COSMOS 2251 DEB", "group": "cosmos-2251-debris", "lat": -40.06928300302586, "lon": -92.49734502656227, "alt_km": 632.5730850446034, "timestamp": "2025-12-22T11:33:20.836154+00:00", "meta": {"OBJECT_NAME": "COSMOS 2251 DEB", "OBJECT_ID": "1993-036AKP", "EPOCH": "2025-12-20T02:09:32.474016", "MEAN_MOTION": 14.59298517, "ECCENTRICITY": 0.0143911, "INCLINATION": 74.0379, "RA_OF_ASC_NODE": 285.9917, "ARG_OF_PERICENTER": 11.2111, "MEAN_ANOMALY": 349.2201, "EPHEMERIS_TYPE": 0, "CLASSIFICATION_TYPE": "U", "NORAD_CAT_ID": 35445, "ELEMENT_SET_NO": 999, "REV_AT_EPOCH": 87436, "BSTAR": 0.001392614, "MEAN_MOTION_DOT": 7.582e-05, "MEAN_MOTION_DDOT": 0}, "tle": {"line1": "1 35445U 93036AKP 25354.08995919  .00007582  00000+0  13926-2 0  9995", "line2": "2 35445  74.0379 285.9917 0143911  11.2111 349.2201 14.59298517874360"}}, "geometry": {"type": "Point", "coordinates": [-92.49734502656227, -40.06928300302586]}}, {"type": "Feature", "properties": {"norad_id": 35446, "name": "COSMOS 2251 DEB", "group": "cosmos-2251-debris", "lat": -13.79620760722857, "lon": 123.79005855535586, "alt_km": 754.5729239483808, "timestamp": "2025-12-22T11:33:20.836164+00:00", "meta": {"OBJECT_NAME": "COSMOS 2251 DEB", "OBJECT_ID": "1993-036AKQ", "EPOCH": "2025-12-21T06:36:42.821568", "MEAN_MOTION": 14.54637273, "ECCENTRICITY": 0.007464, "INCLINATION": 74.0475, "RA_OF_ASC_NODE": 302.0417, "ARG_OF_PERICENTER": 57.7922, "MEAN_ANOMALY": 303.0449, "EPHEMERIS_TYPE": 0, "CLASSIFICATION_TYPE": "U", "NORAD_CAT_ID": 35446, "ELEMENT_SET_NO": 999, "REV_AT_EPOCH": 88132, "BSTAR": 9.8268e-05, "MEAN_MOTION_DOT": 4.06e-06, "MEAN_MOTION_DDOT": 0}, "tle": {"line1": "1 35446U 93036AKQ 25355.27549562  .00000406  00000+0  98268-4 0  9999", "line2": "2 35446  74.0475 302.0417 0074640  57.7922 303.0449 14.54637273881328"}}, "geometry": {"type": "Point", "coordinates": [123.79005855535586, -13.79620760722857]}}, {"type": "Feature", "properties": {"norad_id": 35448, "name": "COSMOS 2251 DEB", "group": "cosmos-2251-debris", "lat": 39.25632717090321, "lon": 84.59244663925968, "alt_km": 715.4942771809792, "timestamp": "2025-12-22T11:33:20.836173+00:00", "meta": {"OBJECT_NAME": "COSMOS 2251 DEB", "OBJECT_ID": "1993-036AKS", "EPOCH": "2025-12-17T15:48:08.057376", "MEAN_MOTION": 14.54306329, "ECCENTRICITY": 0.00121573, "INCLINATION": 73.9037, "RA_OF_ASC_NODE": 80.133, "ARG_OF_PERICENTER": 263.1799, "MEAN_ANOMALY": 96.798, "EPHEMERIS_TYPE": 0, "CLASSIFICATION_TYPE": "U", "NORAD_CAT_ID": 35448, "ELEMENT_SET_NO": 999, "REV_AT_EPOCH": 87406, "BSTAR": 0.00080210225, "MEAN_MOTION_DOT": 3.379e-05, "MEAN_MOTION_DDOT": 0}, "tle": {"line1": "1 35448U 93036AKS 25351.65842659  .00003379  00000+0  80210-3 0  9991", "line2": "2 35448  73.9037  80.1330 0012157 263.1799  96.7980 14.54306329874064"}}, "geometry": {"type": "Point", "coordinates": [84.59244663925968, 39.25632717090321]}}, {"type": "Feature", "properties": {"norad_id": 35451, "name": "COSMOS 2251 DEB", "group": "cosmos-2251-debris", "lat": 45.508646909805215, "lon": 98.67146015132765, "alt_km": 448.2989288645813, "timestamp": "2025-12-22T11:33:20.836183+00:00", "meta": {"OBJECT_NAME": "COSMOS 2251 DEB", "OBJECT_ID": "1993-036AKV", "EPOCH": "2025-12-19T23:57:44.472096", "MEAN_MOTION": 15.3628162, "ECCENTRICITY": 0.0041565, "INCLINATION": 73.9333, "RA_OF_ASC_NODE": 86.979, "ARG_OF_PERICENTER": 332.0017, "MEAN_ANOMALY": 27.8952, "EPHEMERIS_TYPE": 0, "CLASSIFICATION_TYPE": "U", "NORAD_CAT_ID": 35451, "ELEMENT_SET_NO": 999, "REV_AT_EPOCH": 67517, "BSTAR": 0.0009808021, "MEAN_MOTION_DOT": 0.00035831, "MEAN_MOTION_DDOT": 0}, "tle": {"line1": "1 35451U 93036AKV 25353.99843139  .00035831  00000+0  98080-3 0  9990", "line2": "2 35451  73.9333  86.9790 0041565 332.0017  27.8952 15.36281620675177"}}, "geometry": {"type": "Point", "coordinates": [98.67146015132765, 45.508646909805215]}}, {"type": "Feature", "properties": {"norad_id": 35453, "name": "COSMOS 2251 DEB", "group": "cosmos-2251-debris", "lat": -59.73574993968691, "lon": -148.16241057438313, "alt_km": 787.7976971873459, "timestamp": "2025-12-22T11:33:20.836193+00:00", "meta": {"OBJECT_NAME": "COSMOS 2251 DEB", "OBJECT_ID": "1993-036AKX", "EPOCH": "2025-12-16T19:11:22.117056", "MEAN_MOTION": 14.38003213, "ECCENTRICITY": 0.00669431, "INCLINATION": 74.0096, "RA_OF_ASC_NODE": 12.8823, "ARG_OF_PERICENTER": 145.8531, "MEAN_ANOMALY": 214.6957, "EPHEMERIS_TYPE": 0, "CLASSIFICATION_TYPE": "U", "NORAD_CAT_ID": 35453, "ELEMENT_SET_NO": 999, "REV_AT_EPOCH": 86277, "BSTAR": 0.00051941791, "MEAN_MOTION_DOT": 1.586e-05, "MEAN_MOTION_DDOT": 0}, "tle": {"line1": "1 35453U 93036AKX 25350.79956154  .00001586  00000+0  51942-3 0  9995", "line2": "2 35453  74.0096  12.8823 0066943 145.8531 214.6957 14.38003213862776"}}, "geometry": {"type": "Point", "coordinates": [-148.16241057438313, -59.73574993968691]}}, {"type": "Feature", "properties": {"norad_id": 35455, "name": "COSMOS 2251 DEB", "group": "cosmos-2251-debris", "lat": 39.65695469077552, "lon": 82.78157109012372, "alt_km": 759.4037792168419, "timestamp": "2025-12-22T11:33:20.836203+00:00", "meta": {"OBJECT_NAME": "COSMOS 2251 DEB", "OBJECT_ID": "1993-036AKZ", "EPOCH": "2025-12-20T19:10:19.793280", "MEAN_MOTION": 14.49490073, "ECCENTRICITY": 0.00996755, "INCLINATION": 74.029, "RA_OF_ASC_NODE": 279.6724, "ARG_OF_PERICENTER": 21.2905, "MEAN_ANOMALY": 339.2356, "EPHEMERIS_TYPE": 0, "CLASSIFICATION_TYPE": "U", "NORAD_CAT_ID": 35455, "ELEMENT_SET_NO": 999, "REV_AT_EPOCH": 86660, "BSTAR": 0.00090539181, "MEAN_MOTION_DOT": 3.669e-05, "MEAN_MOTION_DDOT": 0}, "tle": {"line1": "1 35455U 93036AKZ 25354.79884020  .00003669  00000+0  90539-3 0  9992", "line2": "2 35455  74.0290 279.6724 0099675  21.2905 339.2356 14.49490073866606"}}, "geometry": {"type": "Point", "coordinates": [82.78157109012372, 39.65695469077552]}}, {"type": "Feature", "properties": {"norad_id": 35456, "name": "COSMOS 2251 DEB", "group": "cosmos-2251-debris", "lat": 55.31096287015218, "lon": -106.07081509787221, "alt_km": 703.3819851373746, "timestamp": "2025-12-22T11:33:20.836213+00:00", "meta": {"OBJECT_NAME": "COSMOS 2251 DEB", "OBJECT_ID": "1993-036ALA", "EPOCH": "2025-12-16T14:29:43.534176", "MEAN_MOTION": 14.69500166, "ECCENTRICITY": 0.0066538, "INCLINATION": 73.9503, "RA_OF_ASC_NODE": 109.9489, "ARG_OF_PERICENTER": 318.8063, "MEAN_ANOMALY": 40.8095, "EPHEMERIS_TYPE": 0, "CLASSIFICATION_TYPE": "U", "NORAD_CAT_ID": 35456, "ELEMENT_SET_NO": 999, "REV_AT_EPOCH": 65932, "BSTAR": 0.0013258, "MEAN_MOTION_DOT": 8.108e-05, "MEAN_MOTION_DDOT": 0}, "tle": {"line1": "1 35456U 93036ALA 25350.60397609  .00008108  00000+0  13258-2 0  9996", "line2": "2 35456  73.9503 109.9489 0066538 318.8063  40.8095 14.69500166659328"}}, "geometry": {"type": "Point", "coordinates": [-106.07081509787221, 55.31096287015218]}}, {"type": "Feature", "properties": {"norad_id": 35459, "name": "COSMOS 2251 DEB", "group": "cosmos-2251-debris", "lat": 70.87098161610963, "lon": -67.36767674657999, "alt_km": 748.5475333028526, "timestamp": "2025-12-22T11:33:20.836223+00:00", "meta": {"OBJECT_NAME": "COSMOS 2251 DEB", "OBJECT_ID": "1993-036ALD", "EPOCH": "2025-12-21T18:23:18.751200", "MEAN_MOTION": 14.37474606, "ECCENTRICITY": 0.0015969, "INCLINATION": 73.8701, "RA_OF_ASC_NODE": 170.5081, "ARG_OF_PERICENTER": 115.4549, "MEAN_ANOMALY": 244.8258, "EPHEMERIS_TYPE": 0, "CLASSIFICATION_TYPE": "U", "NORAD_CAT_ID": 35459, "ELEMENT_SET_NO": 999, "REV_AT_EPOCH": 58491, "BSTAR": 0.00020109, "MEAN_MOTION_DOT": 5.75e-06, "MEAN_MOTION_DDOT": 0}, "tle": {"line1": "1 35459U 93036ALD 25355.76618925  .00000575  00000+0  20109-3 0  9992", "line2": "2 35459  73.8701 170.5081 0015969 115.4549 244.8258 14.37474606584917"}}, "geometry": {"type": "Point", "coordinates": [-67.36767674657999, 70.87098161610963]}}, {"type": "Feature", "properties": {"norad_id": 35462, "name": "COSMOS 2251 DEB", "group": "cosmos-2251-debris", "lat": -55.0329026620196, "lon": 95.15274981057196, "alt_km": 756.7514579868348, "timestamp": "2025-12-22T11:33:20.836233+00:00", "meta": {"OBJECT_NAME": "COSMOS 2251 DEB", "OBJECT_ID": "1993-036ALG", "EPOCH": "2025-12-19T10:12:24.458112", "MEAN_MOTION": 14.29342636, "ECCENTRICITY": 0.0086733, "INCLINATION": 74.0371, "RA_OF_ASC_NODE": 256.5417, "ARG_OF_PERICENTER": 290.2864, "MEAN_ANOMALY": 68.8979, "EPHEMERIS_TYPE": 0, "CLASSIFICATION_TYPE": "U", "NORAD_CAT_ID": 35462, "ELEMENT_SET_NO": 999, "REV_AT_EPOCH": 66476, "BSTAR": 0.0010032, "MEAN_MOTION_DOT": 2.635e-05, "MEAN_MOTION_DDOT": 0}, "tle": {"line1": "1 35462U 93036ALG 25353.42528308  .00002635  00000+0  10032-2 0  9994", "line2": "2 35462  74.0371 256.5417 0086733 290.2864  68.8979 14.29342636664768"}}, "geometry": {"type": "Point", "coordinates": [95.15274981057196, -55.0329026620196]}}, {"type": "Feature", "properties": {"norad_id": 35465, "name": "COSMOS 2251 DEB", "group": "cosmos-2251-debris", "lat": 68.61063557197342, "lon": -48.255984236209194, "alt_km": 764.8137877292065, "timestamp": "2025-12-22T11:33:20.836242+00:00", "meta": {"OBJECT_NAME": "COSMOS 2251 DEB", "OBJECT_ID": "1993-036ALK", "EPOCH": "2025-12-17T13:03:02.562624", "MEAN_MOTION": 14.44331537, "ECCENTRICITY": 0.00642719, "INCLINATION": 73.9967, "RA_OF_ASC_NODE": 188.0661, "ARG_OF_PERICENTER": 347.2721, "MEAN_ANOMALY": 12.6809, "EPHEMERIS_TYPE": 0, "CLASSIFICATION_TYPE": "U", "NORAD_CAT_ID": 35465, "ELEMENT_SET_NO": 999, "REV_AT_EPOCH": 87311, "BSTAR": 0.00028334394, "MEAN_MOTION_DOT": 9.72e-06, "MEAN_MOTION_DDOT": 0}, "tle": {"line1": "1 35465U 93036ALK 25351.54377966  .00000972  00000+0  28334-3 0  9997", "line2": "2 35465  73.9967 188.0661 0064271 347.2721  12.6809 14.44331537873113"}}, "geometry": {"type": "Point", "coordinates": [-48.255984236209194, 68.61063557197342]}}]}